{
  "type": "FeatureCollection",
  "features": [
    { "type": "Feature", "properties": { "station_id": "matraman", "name": "Stasiun Matraman" }, "geometry": { "type": "Point", "coordinates": [106.8584, -6.2118] } },
    { "type": "Feature", "properties": { "station_id": "pondok_jati", "name": "Stasiun Pondok Jati" }, "geometry": { "type": "Point", "coordinates": [106.8558, -6.2089] } },
    { "type": "Feature", "properties": { "station_id": "jatinegara", "name": "Stasiun Jatinegara" }, "geometry": { "type": "Point", "coordinates": [106.8680, -6.2151] } },
    { "type": "Feature", "properties": { "station_id": "klender", "name": "Stasiun Klender" }, "geometry": { "type": "Point", "coordinates": [106.8996, -6.2136] } },
    { "type": "Feature", "properties": { "station_id": "buaran", "name": "Stasiun Buaran" }, "geometry": { "type": "Point", "coordinates": [106.9247, -6.2155] } },
    { "type": "Feature", "properties": { "station_id": "klender_baru", "name": "Stasiun Klender Baru" }, "geometry": { "type": "Point", "coordinates": [106.9422, -6.2178] } },
    { "type": "Feature", "properties": { "station_id": "cakung", "name": "Stasiun Cakung" }, "geometry": { "type": "Point", "coordinates": [106.9535, -6.2195] } }
  ]
}
